OBJECT_NAME,OBJECT_ID,EPOCH,MEAN_MOTION,ECCENTRICITY,INCLINATION,RA_OF_ASC_NODE,ARG_OF_PERICENTER,MEAN_ANOMALY,EPHEMERIS_TYPE,CLASSIFICATION_TYPE,NORAD_CAT_ID,ELEMENT_SET_NO,REV_AT_EPOCH,BSTAR,MEAN_MOTION_DOT,MEAN_MOTION_DDOT
GEOSCAN 3 (RS92S3),2025-155T,2026-07-13T06:06:05.857344,15.36264580,.00086419,97.4543,164.4532,92.3831,267.8403,0,U,64893,999,8485,.32551534E-3,.11442E-3,0
INNOSAT 3 (RS92S0),2025-155U,2026-07-13T06:54:35.697024,15.45719048,.00083397,97.4488,166.4468,95.3723,264.8477,0,U,64894,999,8499,.50710021E-3,.24483E-3,0
KNACKSAT-2,1998-067XZ,2026-07-13T06:37:11.095104,15.62269029,.0008057,51.6258,163.0209,321.9354,38.1070,0,U,67683,999,2435,.4098E-3,.36553E-3,0
