GEOSCAN 3 (RS92S3)      
1 64893U 25155T   26194.25423446  .00011442  00000+0  32552-3 0  9991
2 64893  97.4543 164.4532 0008641  92.3831 267.8403 15.36264580 84859
INNOSAT 3 (RS92S0)      
1 64894U 25155U   26194.28791316  .00024483  00000+0  50710-3 0  9994
2 64894  97.4488 166.4468 0008339  95.3723 264.8477 15.45719048 84992
KNACKSAT-2              
1 67683U 98067XZ  26194.27582286  .00036553  00000+0  40980-3 0  9997
2 67683  51.6258 163.0209 0008056 321.9354  38.1070 15.62269029 24351
